SAUDISAT 5A             
1 43831U 18102A   26189.18410843  .00003342  00000+0  12382-3 0  9996
2 43831  97.3056 250.3618 0010961  65.6143 294.6240 15.28271700418887
SAUDISAT 5B             
1 43833U 18102C   26189.19949973  .00003440  00000+0  12643-3 0  9999
2 43833  97.3164 253.4846 0011707  67.0367 293.2107 15.28517100419008
GAOFEN-10R              
1 44622U 19066A   26189.20449480  .00000807  00000+0  10587-3 0  9995
2 44622  98.0505 142.9374 0007124  71.1915 289.0071 14.83046550365495
CARTOSAT-3              
1 44804U 19081A   26189.16778303  .00003145  00000+0  15197-3 0  9998
2 44804  97.4293 250.6962 0013351  82.8306 277.4446 15.19293370366656
GAOFEN-12 01            
1 44819U 19082A   26189.16702529  .00000263  00000+0  41047-4 0  9994
2 44819  97.8105 194.9930 0001354  52.4038 307.7297 14.80475615357199
CSG-1                   
1 44873U 19092A   26189.18215508  .00000261  00000+0  39377-4 0  9994
2 44873  97.8893  12.4810 0001490  91.0328 269.1056 14.82147204354582
NEMO-HD                 
1 46277U 20061F   26189.18184329  .00006661  00000+0  14299-3 0  9993
2 46277  97.1907 250.9271 0001190  79.6314 280.5069 15.45033010325224
SENTINEL-6A             
1 46984U 20086A   26189.16598611 -.00000062  00000+0 -32833-5 0  9993
2 46984  66.0415  91.4807 0007811 269.9757  90.0363 12.80930106263019
CAS500-1                
1 47932U 21022A   26189.19268466  .00003908  00000+0  18389-3 0  9991
2 47932  97.3874  84.0184 0004415 193.0265 167.0857 15.20129378293950
GAOFEN-12 02            
1 48079U 21026A   26189.24793624  .00000244  00000+0  38987-4 0  9990
2 48079  97.9929 187.3431 0005360 150.9345 209.2166 14.80312353284878
PLEIADES NEO 3          
1 48268U 21034A   26189.18821466 -.00000168  00000+0 -14712-4 0  9995
2 48268  97.8936 263.6528 0001333  93.4308 266.7057 14.81672678280767
PLEIADES NEO 4          
1 49070U 21073E   26188.41157615 -.00000002  00000+0  63105-5 0  9990
2 49070  97.8931 262.8836 0001292  91.3078 268.8283 14.81677754264364
LANDSAT 9               
1 49260U 21088A   26188.79748503  .00000255  00000+0  66792-4 0  9993
2 49260  98.2273 258.7247 0001161  90.0270 270.1061 14.57111619254000
CSG-2                   
1 51444U 22008A   26189.21586461  .00000561  00000+0  76983-4 0  9997
2 51444  97.8897  12.5088 0001589  85.5372 274.6023 14.82160731239703
GAOFEN-12 03            
1 52912U 22069A   26189.14628464  .00000516  00000+0  74784-4 0  9994
2 52912  97.8249  76.4857 0002520  79.2514 280.8982 14.80069227217718
SWOT                    
1 54754U 22173A   26189.13870573 -.00000018  00000+0 -10470-4 0  9996
2 54754  77.6104   7.0245 0000276  77.4679 282.6503 14.00171905182088
GAOFEN-12 04            
1 57654U 23123A   26189.16456461  .00000672  00000+0  96165-4 0  9992
2 57654  97.9108 106.8709 0003808  64.6483 295.5123 14.79766150155738
PARS 1                  
1 59065U 24039Q   26189.22152814  .00007041  00000+0  14511-3 0  9990
2 59065  97.4834 170.8111 0010627  49.5244 310.6929 15.46180220131896
RESURS-P 4              
1 59371U 24061A   26189.16184545  .00001948  00000+0  64988-4 0  9998
2 59371  97.2754 136.6972 0003212 100.1709 259.9895 15.32252189126971
LEGION 1                
1 59625U 24081A   26189.20638206  .00002265  00000+0  11861-3 0  9999
2 59625  97.5009 266.8402 0007812 298.7657  61.2791 15.16813322120729
LEGION 2                
1 59626U 24081B   26189.17069606  .00002454  00000+0  12826-3 0  9990
2 59626  97.5010 266.9019 0009874 261.2420  98.7695 15.16791347120720
ALOS-4 (DAICHI-4)       
1 60182U 24123A   26189.19234890  .00001166  00000+0  16306-3 0  9993
2 60182  97.9219 286.0668 0001612  98.3933 261.7462 14.79468214108987
LEGION 3                
1 60452U 24146A   26189.15234421  .00001900  00000+0  11189-3 0  9994
2 60452  45.0020 278.1379 0008789 297.3640  62.6344 15.15625990105206
LEGION 4                
1 60453U 24146B   26188.95517618  .00002506  00000+0  14092-3 0  9993
2 60453  45.0022  11.0714 0011541  66.3943 293.8146 15.16202321104023
SENTINEL-2C             
1 60989U 24157A   26189.15156635  .00000059  00000+0  39335-4 0  9999
2 60989  98.5685 263.6364 0000948  96.3359 263.7932 14.30814321 95981
IONOSFERA-M 1           
1 61735U 24199A   26189.15089084  .00000020  00000+0  28686-4 0  9993
2 61735  98.7147  62.0992 0002214  82.1132 278.0298 14.22758083130688
IONOSFERA-M 2           
1 61736U 24199B   26189.18513566  .00000024  00000+0  30246-4 0  9993
2 61736  98.7145  62.0435 0000318  87.5138 272.6076 14.22761492133817
PRSC-EO1                
1 62725U 25012A   26189.22414020  .00004253  00000+0  21406-3 0  9992
2 62725  97.4216 261.2723 0006320 170.8536 189.2814 15.17721857 81384
BIOMASS                 
1 63772U 25090A   26188.96816102  .00000787  00000+0  14727-3 0  9994
2 63772  98.0749  15.9787 0001419  91.9089 268.2278 14.67536299 63738
GOSAT-GW (IBUKI GW)     
1 64694U 25141A   26189.19003950  .00000372  00000+0  73980-4 0  9997
2 64694  98.0566 126.1662 0001452  85.0530 275.0840 14.67552918 54926
IONOSFERA-M 3           
1 64876U 25155A   26189.22164071  .00000028  00000+0  32364-4 0  9999
2 64876  98.6035 150.5983 0002058 122.8391 237.2985 14.21489991 49395
