OBJECT_NAME,OBJECT_ID,EPOCH,MEAN_MOTION,ECCENTRICITY,INCLINATION,RA_OF_ASC_NODE,ARG_OF_PERICENTER,MEAN_ANOMALY,EPHEMERIS_TYPE,CLASSIFICATION_TYPE,NORAD_CAT_ID,ELEMENT_SET_NO,REV_AT_EPOCH,BSTAR,MEAN_MOTION_DOT,MEAN_MOTION_DDOT
SAUDISAT 5A,2018-102A,2026-07-08T04:25:06.968352,15.28271700,.0010961,97.3056,250.3618,65.6143,294.6240,0,U,43831,999,41888,.12382E-3,.3342E-4,0
SAUDISAT 5B,2018-102C,2026-07-08T04:47:16.776672,15.28517100,.0011707,97.3164,253.4846,67.0367,293.2107,0,U,43833,999,41900,.12643E-3,.344E-4,0
GAOFEN-10R,2019-066A,2026-07-08T04:54:28.350720,14.83046550,.0007124,98.0505,142.9374,71.1915,289.0071,0,U,44622,999,36549,.10587E-3,.807E-5,0
CARTOSAT-3,2019-081A,2026-07-08T04:01:36.453792,15.19293370,.0013351,97.4293,250.6962,82.8306,277.4446,0,U,44804,999,36665,.15197E-3,.3145E-4,0
GAOFEN-12 01,2019-082A,2026-07-08T04:00:30.985056,14.80475615,.0001354,97.8105,194.9930,52.4038,307.7297,0,U,44819,999,35719,.41047E-4,.263E-5,0
CSG-1,2019-092A,2026-07-08T04:22:18.198912,14.82147204,.000149,97.8893,12.4810,91.0328,269.1056,0,U,44873,999,35458,.39377E-4,.261E-5,0
NEMO-HD,2020-061F,2026-07-08T04:21:51.260256,15.45033010,.000119,97.1907,250.9271,79.6314,280.5069,0,U,46277,999,32522,.14299E-3,.6661E-4,0
SENTINEL-6A,2020-086A,2026-07-08T03:59:01.199904,12.80930106,.0007811,66.0415,91.4807,269.9757,90.0363,0,U,46984,999,26301,-.32833E-5,-.62E-6,0
CAS500-1,2021-022A,2026-07-08T04:37:27.954624,15.20129378,.0004415,97.3874,84.0184,193.0265,167.0857,0,U,47932,999,29395,.18389E-3,.3908E-4,0
GAOFEN-12 02,2021-026A,2026-07-08T05:57:01.691136,14.80312353,.000536,97.9929,187.3431,150.9345,209.2166,0,U,48079,999,28487,.38987E-4,.244E-5,0
PLEIADES NEO 3,2021-034A,2026-07-08T04:31:01.746624,14.81672678,.0001333,97.8936,263.6528,93.4308,266.7057,0,U,48268,999,28076,-.14712E-4,-.168E-5,0
PLEIADES NEO 4,2021-073E,2026-07-07T09:52:40.179360,14.81677754,.00012925,97.8931,262.8836,91.3078,268.8283,0,U,49070,999,26436,.6310521E-5,-.2E-7,0
LANDSAT 9,2021-088A,2026-07-07T19:08:22.706592,14.57111619,.0001161,98.2273,258.7247,90.0270,270.1061,0,U,49260,999,25400,.66792E-4,.255E-5,0
CSG-2,2022-008A,2026-07-08T05:10:50.702304,14.82160731,.0001589,97.8897,12.5088,85.5372,274.6023,0,U,51444,999,23970,.76983E-4,.561E-5,0
GAOFEN-12 03,2022-069A,2026-07-08T03:30:38.992896,14.80069227,.000252,97.8249,76.4857,79.2514,280.8982,0,U,52912,999,21771,.74784E-4,.516E-5,0
SWOT,2022-173A,2026-07-08T03:19:44.175072,14.00171905,.0000276,77.6104,7.0245,77.4679,282.6503,0,U,54754,999,18208,-.1047E-4,-.18E-6,0
GAOFEN-12 04,2023-123A,2026-07-08T03:56:58.382304,14.79766150,.0003808,97.9108,106.8709,64.6483,295.5123,0,U,57654,999,15573,.96165E-4,.672E-5,0
PARS 1,2024-039Q,2026-07-08T05:19:00.031296,15.46180220,.0010627,97.4834,170.8111,49.5244,310.6929,0,U,59065,999,13189,.14511E-3,.7041E-4,0
RESURS-P 4,2024-061A,2026-07-08T03:53:03.446880,15.32252189,.0003212,97.2754,136.6972,100.1709,259.9895,0,U,59371,999,12697,.64988E-4,.1948E-4,0
LEGION 1,2024-081A,2026-07-08T04:57:11.409984,15.16813322,.0007812,97.5009,266.8402,298.7657,61.2791,0,U,59625,999,12072,.11861E-3,.2265E-4,0
LEGION 2,2024-081B,2026-07-08T04:05:48.139584,15.16791347,.0009874,97.5010,266.9019,261.2420,98.7695,0,U,59626,999,12072,.12826E-3,.2454E-4,0
ALOS-4 (DAICHI-4),2024-123A,2026-07-08T04:36:58.944960,14.79468214,.0001612,97.9219,286.0668,98.3933,261.7462,0,U,60182,999,10898,.16306E-3,.1166E-4,0
LEGION 3,2024-146A,2026-07-08T03:39:22.539744,15.15625990,.0008789,45.0020,278.1379,297.3640,62.6344,0,U,60452,999,10520,.11189E-3,.19E-4,0
LEGION 4,2024-146B,2026-07-07T22:55:27.221952,15.16202321,.0011541,45.0022,11.0714,66.3943,293.8146,0,U,60453,999,10402,.14092E-3,.2506E-4,0
SENTINEL-2C,2024-157A,2026-07-08T03:38:15.332640,14.30814321,.0000948,98.5685,263.6364,96.3359,263.7932,0,U,60989,999,9598,.39335E-4,.59E-6,0
IONOSFERA-M 1,2024-199A,2026-07-08T03:37:16.968576,14.22758083,.0002214,98.7147,62.0992,82.1132,278.0298,0,U,61735,999,13068,.28686E-4,.2E-6,0
IONOSFERA-M 2,2024-199B,2026-07-08T04:26:35.721024,14.22761492,.0000318,98.7145,62.0435,87.5138,272.6076,0,U,61736,999,13381,.30246E-4,.24E-6,0
PRSC-EO1,2025-012A,2026-07-08T05:22:45.713280,15.17721857,.000632,97.4216,261.2723,170.8536,189.2814,0,U,62725,999,8138,.21406E-3,.4253E-4,0
BIOMASS,2025-090A,2026-07-07T23:14:09.112128,14.67536299,.0001419,98.0749,15.9787,91.9089,268.2278,0,U,63772,999,6373,.14727E-3,.787E-5,0
GOSAT-GW (IBUKI GW),2025-141A,2026-07-08T04:33:39.412800,14.67552918,.0001452,98.0566,126.1662,85.0530,275.0840,0,U,64694,999,5492,.7398E-4,.372E-5,0
IONOSFERA-M 3,2025-155A,2026-07-08T05:19:09.757344,14.21489991,.0002058,98.6035,150.5983,122.8391,237.2985,0,U,64876,999,4939,.32364E-4,.28E-6,0
